OSCAR 7 (AO-7)          
1 07530U 74089B   26183.87627582 -.00000045  00000+0  77302-5 0  9991
2 07530 101.9899 197.2864 0012659 101.0890  19.6253 12.53698346362489
PHASE 3B (AO-10)        
1 14129U 83058B   26182.45083748 -.00000048  00000+0  00000+0 0  9990
2 14129  25.9245 217.2087 6005973 119.5898 312.7847  2.05870235295789
UOSAT 2 (UO-11)         
1 14781U 84021B   26183.86020326  .00001736  00000+0  18198-3 0  9999
2 14781  97.8066 149.2607 0008803 125.4779 234.7262 14.90824847259461
LUSAT (LO-19)           
1 20442U 90005G   26183.87990446  .00000119  00000+0  59265-4 0  9994
2 20442  98.8845 206.1176 0012001 155.2514 204.9248 14.34127825904645
EYESAT A (AO-27)        
1 22825U 93061C   26183.59287117  .00000133  00000+0  67579-4 0  9992
2 22825  98.6875 251.0004 0009336  59.8657 300.3450 14.30946419709201
ITAMSAT (IO-26)         
1 22826U 93061D   26183.63758890  .00000132  00000+0  66678-4 0  9997
2 22826  98.6822 250.9642 0009642  44.3148 315.8806 14.31373734709520
RADIO ROSTO (RS15)      
1 23439U 94085A   26183.81395042 -.00000021  00000+0  60439-3 0  9997
2 23439  64.8178 277.9441 0156471   0.9878 359.1328 11.27583443297666
JAS-2 (FO-29)           
1 24278U 96046B   26183.83715120 -.00000028  00000+0  57561-5 0  9994
2 24278  98.5226  30.5644 0350781  55.9383 307.4537 13.53274951475281
TECHSAT 1B (GO-32)      
1 25397U 98043D   26183.86904904  .00000053  00000+0  42977-4 0  9990
2 25397  99.0074 177.0235 0001780 134.6871 225.4453 14.24431396453563
ISS (ZARYA)             
1 25544U 98067A   26182.50817465  .00006185  00000+0  11827-3 0  9996
2 25544  51.6311 229.1989 0004224 255.0896 104.9625 15.49503254573972
PCSAT (NO-44)           
1 26931U 01043C   26183.45542852  .00000104  00000+0  69838-4 0  9996
2 26931  67.0489 204.7811 0006018 265.5934  94.4481 14.31961164292637
SAUDISAT 1C (SO-50)     
1 27607U 02058C   26183.86686710  .00000945  00000+0  12865-3 0  9991
2 27607  64.5520  80.4726 0074878 259.5465  99.7197 14.83079029266787
CUTE-1 (CO-55)          
1 27844U 03031E   26183.84293221  .00000336  00000+0  16430-3 0  9991
2 27844  98.6736 192.2049 0010444 134.8646 225.3383 14.24345535193902
CUBESAT XI-IV (CO-57)   
1 27848U 03031J   26183.76896903  .00000279  00000+0  14166-3 0  9992
2 27848  98.6769 191.8320 0009989 152.4134 207.7577 14.23629228193596
MOZHAETS 4 (RS22)       
1 27939U 03042A   26184.64627509  .00001233  00000+0  19797-3 0  9993
2 27939  98.3468   9.4700 0010375 211.3207 213.2425 14.73497913217975
CUBESAT XI-V            
1 28895U 05043F   26183.69034546  .00001723  00000+0  27823-3 0  9998
2 28895  98.3002 339.6391 0014698 152.1460 208.0536 14.72675255104033
CUTE-1.7+APD II (CO-65) 
1 32785U 08021C   26184.22406084  .00005922  00000+0  37226-3 0  9993
2 32785  97.8286 165.9782 0008085 346.2326  13.8680 15.09607835987613
SEEDS II (CO-66)        
1 32791U 08021J   26183.80114905  .00020103  00000+0  62654-3 0  9992
2 32791  97.7521 182.4499 0001504 186.8338 173.2883 15.33292646989682
YUBILEINY (RS30)        
1 32953U 08025A   26184.67694286 -.00000075  00000+0 -61020-3 0  9991
2 32953  82.5048 345.1806 0018510 275.7656  84.1313 12.43179804821742
KKS-1 (KISEKI)          
1 33499U 09002H   26183.77363460  .00001569  00000+0  19908-3 0  9995
2 33499  98.1182 106.4628 0006563 234.2515 125.8088 14.83164432938501
SWISSCUBE               
1 35932U 09051B   26183.28877764  .00001164  00000+0  23926-3 0  9992
2 35932  98.4025  91.4397 0007062 154.9157 205.2388 14.62510844891362
BEESAT-1                
1 35933U 09051C   26183.30608929  .00000968  00000+0  20391-3 0  9995
2 35933  98.3950  91.0608 0005269 165.6666 194.4685 14.61745142891393
ITUPSAT1                
1 35935U 09051E   26182.96766707  .00000816  00000+0  17832-3 0  9995
2 35935  98.4034  89.8935 0007122 182.8141 177.3019 14.60462418890892
XIWANG-1 (HOPE-1)       
1 36122U 09072B   26184.65969103 -.00000231  00000+0 -48802-3 0  9994
2 36122 100.4037 138.2296 0007214 191.3384 168.7568 13.16439293795176
O/OREOS (USA 219)       
1 37224U 10062C   26183.33098779  .00002634  00000+0  25359-3 0  9994
2 37224  71.9706  46.0346 0013207  30.8219 329.3725 14.93808360118901
JUGNU                   
1 37839U 11058B   26183.77370613  .00000402  00000+0  70012-4 0  9998
2 37839  19.9590 213.7346 0018338 248.3915 277.2056 14.13780576761236
SRMSAT                  
1 37841U 11058D   26183.56263183  .00000399  00000+0  72828-4 0  9993
2 37841  19.9731 326.4081 0011821  13.5504  59.6043 14.11578853759999
STRAND-1                
1 39090U 13009E   26183.44238219  .00000331  00000+0  12561-3 0  9991
2 39090  98.3927   3.3015 0008617 177.2756 182.8479 14.37172679699257
ZACUBE-1 (TSHEPISOSAT)  
1 39417U 13066B   26183.93762385  .00003320  00000+0  25815-3 0  9994
2 39417  97.8039 146.3543 0042994 194.6737 165.3242 15.01274948683093
GOMX-1                  
1 39430U 13066Q   26184.66415045  .00001971  00000+0  29996-3 0  9992
2 39430  97.6468  24.0866 0129315  25.1832 335.5606 14.69515976672331
